ONEWEB-0326             
1 49195U 21083K   22267.85190637 -.00000009  00000+0 -56867-4 0  9996
2 49195  87.9125 245.8789 0002341 102.7216 257.4177 13.18686319 51863
ONEWEB-0327             
1 49196U 21083L   22268.21579396  .00000054  00000+0  10295-3 0  9993
2 49196  87.9126 245.7887 0002399  98.1337 262.0068 13.18688746 51933
ONEWEB-0328             
1 49197U 21083M   22267.85215846 -.00000339  00000+0 -96315-3 0  9995
2 49197  87.8992 230.6548 0001884  86.7313 273.4031 13.13467442 52194
ONEWEB-0331             
1 49198U 21083N   22267.84727232 -.00000011  00000+0 -61608-4 0  9997
2 49198  87.9124 245.9050 0002074  95.5508 264.5860 13.18687105 50594
ONEWEB-0333             
1 49199U 21083P   22267.84688390 -.00000319  00000+0 -90915-3 0  9992
2 49199  87.8992 230.6550 0001938  72.5077 287.6264 13.13471138 52203
ONEWEB-0334             
1 49200U 21083Q   22267.91667824 -.00057613  00000+0 -59669-2 0  9991
2 49200  87.2111 195.1596 0002577  24.9635 111.0616 14.90472758  1300
ONEWEB-0335             
1 49201U 21083R   22268.14735859 -.00000322  00000+0 -91661-3 0  9996
2 49201  87.8993 230.5895 0001838  89.7421 270.3919 13.13470569 53542
ONEWEB-0336             
1 49202U 21083S   22268.19180998  .00000327  00000+0  85971-3 0  9990
2 49202  87.8990 230.5823 0001978  74.9309 285.2038 13.13467649 53550
ONEWEB-0337             
1 49203U 21083T   22267.83420250 -.00000109  00000+0 -33217-3 0  9995
2 49203  87.8991 230.6542 0001800  86.5921 273.5414 13.13467424 52204
ONEWEB-0338             
1 49204U 21083U   22267.91667824 -.00052038  00000+0 -53834-2 0  9999
2 49204  87.2169 195.4410 0003805  46.3782 357.0353 14.90485153  1304
ONEWEB-0339             
1 49205U 21083V   22267.82997371  .00000196  00000+0  50157-3 0  9995
2 49205  87.8991 230.6545 0001543  75.9077 284.2223 13.13467743 52185
ONEWEB-0340             
1 49206U 21083W   22267.83486817  .00000121  00000+0  27539-3 0  9991
2 49206  87.9126 245.8968 0001903  90.0005 270.1345 13.18686806 50559
ONEWEB-0341             
1 49207U 21083X   22267.69086434  .00000002  00000+0 -27238-4 0  9993
2 49207  87.9124 245.8583 0000956 109.2931 250.8304 13.18684353 50554
ONEWEB-0342             
1 49208U 21083Y   22267.91667824 -.00058191  00000+0 -60227-2 0  9993
2 49208  87.2130 195.2561 0003807  48.1901 167.3857 14.90499809  1300
ONEWEB-0343             
1 49209U 21083Z   22267.68776453  .00000009  00000+0 -89202-5 0  9998
2 49209  87.9123 245.8960 0000559  75.6531 284.4664 13.18687488 50605
ONEWEB-0344             
1 49210U 21083AA  22268.17910774  .00000025  00000+0  32309-4 0  9993
2 49210  87.8992 230.5893 0002072  84.0367 276.0999 13.13471681 53533
ONEWEB-0345             
1 49211U 21083AB  22267.81620022  .00000400  00000+0  10610-2 0  9994
2 49211  87.8992 230.6467 0001811 105.7411 254.3918 13.13468060 52191
ONEWEB-0346             
1 49212U 21083AC  22268.22511021 -.00000016  00000+0 -72314-4 0  9995
2 49212  87.9124 245.7798 0002225  98.6765 261.4619 13.18685611 51909
ONEWEB-0348             
1 49213U 21083AD  22267.91667824 -.00058528  00000+0 -60588-2 0  9993
2 49213  87.2156 195.3748 0003134  35.7079 135.0448 14.90495315  1309
ONEWEB-0350             
1 49214U 21083AE  22267.82573857  .00000177  00000+0  44909-3 0  9991
2 49214  87.8992 230.6703 0001835  96.1490 263.9849 13.13467750 52221
ONEWEB-0351             
1 49215U 21083AF  22267.91667824 -.00055235  00000+0 -57179-2 0  9999
2 49215  87.2085 195.0596 0002502  34.7706 255.5152 14.90479108  1306
ONEWEB-0352             
1 49216U 21083AG  22268.18756617  .00000361  00000+0  95224-3 0  9991
2 49216  87.8991 230.5825 0002094  78.8411 281.2953 13.13470511 53661
ONEWEB-0354             
1 49217U 21083AH  22267.91667824 -.00058711  00000+0 -60786-2 0  9991
2 49217  87.2140 195.2905 0002819  58.4185 129.4571 14.90491575  1307
ONEWEB-0355             
1 49218U 21083AJ  22267.83841042 -.00000179  00000+0 -52484-3 0  9991
2 49218  87.8990 230.6562 0001565  78.7955 281.3350 13.13471592 52194
ONEWEB-0357             
1 49219U 21083AK  22267.91667824 -.00057123  00000+0 -59113-2 0  9991
2 49219  87.2137 195.2789 0004032  43.4542  85.3433 14.90498939  1303
ONEWEB-0332             
1 49279U 21090A   22267.91667824 -.00040951  00000+0 -11094+0 0  9999
2 49279  87.9134 200.3324 0001923  57.0483 239.9596 13.14529677  1303
ONEWEB-0347             
1 49280U 21090B   22267.91667824 -.00057281  00000+0 -21681-1 0  9990
2 49280  87.7008 190.2957 0003492 136.2100 141.7156 14.31716818  1308
ONEWEB-0349             
1 49281U 21090C   22268.25001157  .00017476  00000+0  42871-1 0  9994
2 49281  87.9244 185.2352 0001725  89.3123 212.8986 13.20765745 51470
ONEWEB-0353             
1 49282U 21090D   22267.91667824 -.00040570  00000+0 -10991+0 0  9995
2 49282  87.9077 200.3626 0002129  63.9956 273.0219 13.14527050  1302
ONEWEB-0356             
1 49283U 21090E   22268.25001157  .00017468  00000+0  42851-1 0  9995
2 49283  87.9294 185.2174 0002765  91.3453 220.9708 13.20766770 51474
ONEWEB-0358             
1 49284U 21090F   22267.91667824 -.00043154  00000+0 -10665+0 0  9996
2 49284  87.9329 185.1816 0001998  89.9267 318.6275 13.20786764  1305
ONEWEB-0359             
1 49285U 21090G   22267.91667824 -.00043427  00000+0 -10732+0 0  9995
2 49285  87.9329 185.2193 0001249  87.3643 331.0220 13.20791846  1300
ONEWEB-0360             
1 49286U 21090H   22268.25001157  .00018129  00000+0  44468-1 0  9999
2 49286  87.9325 185.1657 0001937  78.1443 164.1011 13.20769894 51497
ONEWEB-0361             
1 49287U 21090J   22268.25001157  .00017488  00000+0  42897-1 0  9991
2 49287  87.9300 185.1998 0001962  76.6843 245.7843 13.20769597 51482
ONEWEB-0362             
1 49288U 21090K   22268.25001157  .00042431  00000+0  10549+0 0  9995
2 49288  87.9284 215.3855 0002329  71.8704 205.3114 13.19705821 48222
ONEWEB-0363             
1 49289U 21090L   22268.25001157  .00017965  00000+0  44069-1 0  9996
2 49289  87.9298 185.1985 0002130  84.4363 167.8554 13.20764621 51495
ONEWEB-0364             
1 49290U 21090M   22267.91667824 -.00056808  00000+0 -23165-1 0  9994
2 49290  87.6947 190.5365 0003085 112.1723 159.9856 14.27909278  1305
ONEWEB-0365             
1 49291U 21090N   22268.25001157  .00043747  00000+0  10875+0 0  9992
2 49291  87.9201 215.4615 0001843  78.6764 169.1385 13.19704962 48201
ONEWEB-0366             
1 49292U 21090P   22267.91667824 -.00040463  00000+0 -10962+0 0  9995
2 49292  87.9071 200.3482 0002221  70.8884 286.1403 13.14526060  1307
ONEWEB-0367             
1 49293U 21090Q   22268.25001157  .00017838  00000+0  43756-1 0  9992
2 49293  87.9271 185.2395 0002066  69.9932 192.2526 13.20767410 51484
ONEWEB-0368             
1 49294U 21090R   22267.91667824 -.00052718  00000+0 -21507-1 0  9992
2 49294  87.6972 190.5268 0002370 149.4958 238.2185 14.27857765  1307
ONEWEB-0369             
1 49295U 21090S   22268.25001157  .00043032  00000+0  10698+0 0  9996
2 49295  87.9233 215.4329 0002222  72.4633 189.9304 13.19705271 48194
ONEWEB-0370             
1 49296U 21090T   22267.91667824 -.00044492  00000+0 -10996+0 0  9992
2 49296  87.9315 185.2689 0002054  75.5677  12.5850 13.20793872  1309
ONEWEB-0371             
1 49297U 21090U   22268.25001157  .00044586  00000+0  11082+0 0  9991
2 49297  87.9283 215.3676 0001978  80.5388 152.5525 13.19708812 48239
ONEWEB-0372             
1 49298U 21090V   22267.91667824 -.00045885  00000+0 -11342+0 0  9997
2 49298  87.9308 185.2661 0002332  67.1293  61.2152 13.20792277  1307
ONEWEB-0373             
1 49299U 21090W   22267.91667824 -.00051787  00000+0 -19590-1 0  9991
2 49299  87.6968 190.2150 0003787 190.5107 298.2472 14.31706832  1308
ONEWEB-0374             
1 49300U 21090X   22267.91667824 -.00133773  00000+0 -36377+0 0  9990
2 49300  87.9131 200.3629 0002163  72.3682 343.0050 13.14947036  1306
ONEWEB-0375             
1 49301U 21090Y   22268.25001157  .00020464  00000+0  50240-1 0  9997
2 49301  87.9356 185.1366 0002194  91.7969 120.6201 13.20696857 52178
ONEWEB-0376             
1 49302U 21090Z   22268.25001157  .00044156  00000+0  10976+0 0  9992
2 49302  87.9226 215.4424 0002065  69.8900 170.4920 13.19705618 48232
ONEWEB-0377             
1 49303U 21090AA  22267.91667824 -.00044097  00000+0 -10908+0 0  9995
2 49303  87.9311 185.2120 0001764  86.8659 351.6554 13.20730724  1301
ONEWEB-0378             
1 49304U 21090AB  22268.25001157  .00018299  00000+0  44888-1 0  9994
2 49304  87.9261 185.2485 0002176  68.2627 303.9710 13.20764441 51455
ONEWEB-0379             
1 49305U 21090AC  22267.91667824 -.00040881  00000+0 -11076+0 0  9991
2 49305  87.9093 200.3453 0002090  72.9667  13.9338 13.14523488  1304
ONEWEB-0380             
1 49306U 21090AD  22268.25001157  .00043376  00000+0  10783+0 0  9995
2 49306  87.9224 215.4487 0001795  81.7061 173.4708 13.19705815 48206
ONEWEB-0381             
1 49307U 21090AE  22268.25001157  .00017558  00000+0  43069-1 0  9994
2 49307  87.9311 185.2219 0002091  78.4424 203.8750 13.20769764 51470
ONEWEB-0382             
1 49308U 21090AF  22268.25001157  .00017588  00000+0  43146-1 0  9994
2 49308  87.9303 185.2080 0002283  86.1208 246.1129 13.20765139 51480
ONEWEB-0383             
1 49309U 21090AG  22267.91667824 -.00041187  00000+0 -11158+0 0  9996
2 49309  87.9127 200.2883 0002323  75.3639  41.3488 13.14531544  1300
ONEWEB-0384             
1 49310U 21090AH  22268.25001157  .00017729  00000+0  43493-1 0  9999
2 49310  87.9283 185.2195 0002556  93.1849 249.0563 13.20762259 51494
ONEWEB-0385             
1 49311U 21090AJ  22268.25001157  .00018024  00000+0  44216-1 0  9993
2 49311  87.9308 185.2006 0002347  81.7905 280.5024 13.20762751 51475
ONEWEB-0386             
1 49312U 21090AK  22268.25001157  .00017479  00000+0  42879-1 0  9990
2 49312  87.9270 185.2140 0002477  77.5338 214.6129 13.20764748 51483
